IRIDIUM 26              
1 24903U 97043A   25220.61426943  .00000282  00000+0  88340-4 0  9995
2 24903  86.3918  88.5930 0001945  86.1077 274.0343 14.37177184464275
IRIDIUM 22              
1 24907U 97043E   25220.58748616  .00000272  00000+0  87017-4 0  9998
2 24907  86.3927  92.1911 0002083  89.3361 270.8074 14.35986136464294
DUMMY MASS 1            
1 24925U 97048A   25220.43539309  .00000321  00000+0  32734-4 0  9995
2 24925  86.3343 111.1766 0005484 341.9206  18.1823 14.87022078512897
DUMMY MASS 2            
1 24926U 97048B   25220.20433639  .00000333  00000+0  34199-4 0  9990
2 24926  86.3347 112.9010 0006745 353.0827   7.0304 14.86773939512638
IRIDIUM 29              
1 24944U 97051A   25220.24342824  .00000326  00000+0  10429-3 0  9994
2 24944  86.3973 122.0724 0002380  87.2461 272.9008 14.36503149460745
IRIDIUM 33              
1 24946U 97051C   25220.63112440  .00000253  00000+0  82244-4 0  9992
2 24946  86.3885 121.1744 0005677 268.1034  91.9512 14.34919949460262
IRIDIUM 28              
1 24948U 97051E   25220.46252091  .00000268  00000+0  82936-4 0  9996
2 24948  86.3973 119.4662 0001677  83.1069 277.0320 14.37416054461357
IRIDIUM 36              
1 24967U 97056C   25220.55688557  .00000281  00000+0  87111-4 0  9997
2 24967  86.4020 151.0184 0002093  91.4659 268.6779 14.37643288459748
